[
    {
        "Altitude(m)": 617710.6286834693,
        "Argument of Periapsis(deg)": 0.0,
        "Eccentricity": 0.0,
        "Inclination(deg)": 60.0,
        "Latitude(deg)": -41.10263042396253,
        "Longitude(deg)": 79.96668650204815,
        "Mean Anomaly(deg)": -49.09089999999989,
        "RAAN(deg)": 210.0,
        "Satellite Name": "Test1 943",
        "Satellite Number": 943,
        "Semi-Major Axis(m)": 6980739.136638005,
        "Time(s)": 0
    },
    {
        "Altitude(m)": 617517.9269948761,
        "Argument of Periapsis(deg)": 0.00010418945913296404,
        "Eccentricity": 0.0,
        "Inclination(deg)": 60.0,
        "Latitude(deg)": -40.636836811294756,
        "Longitude(deg)": 80.46347896695464,
        "Mean Anomaly(deg)": -48.47079385453804,
        "RAAN(deg)": 209.99957995086027,
        "Satellite Name": "Test1 943",
        "Satellite Number": 943,
        "Semi-Major Axis(m)": 6980739.136638005,
        "Time(s)": 10
    }
]